COSMOS 2251 DEB         
1 34035U 93036HW  17345.57665657  .00000566  00000-0  21548-3 0  9993
2 34035  74.0723 311.7571 0060767 335.6977 142.9857 14.32163188459822
